{
"type": "FeatureCollection",
"name": "centres_sante",
"crs": { "type": "name", "properties": { "name": "urn:ogc:def:crs:OGC:1.3:CRS84" } },
"features": [
{ "type": "Feature", "properties": { "facility_id": "HF0001", "facility_name": "Case de Santé Dakar 1", "facility_type": "Case de Santé", "region": "Dakar", "capacity_beds": 7, "has_maternity": 1, "has_electricity": 1 }, "geometry": { "type": "Point", "coordinates": [ -17.481700826357415, 14.709436822373419 ] } },
{ "type": "Feature", "properties": { "facility_id": "HF0002", "facility_name": "Poste de Santé Dakar 2", "facility_type": "Poste de Santé", "region": "Dakar", "capacity_beds": 19, "has_maternity": 0, "has_electricity": 1 }, "geometry": { "type": "Point", "coordinates": [ -17.36149067820757, 14.567944842587004 ] } },
{ "type": "Feature", "properties": { "facility_id": "HF0003", "facility_name": "Poste de Santé Dakar 3", "facility_type": "Poste de Santé", "region": "Dakar", "capacity_beds": 18, "has_maternity": 1, "has_electricity": 1 }, "geometry": { "type": "Point", "coordinates": [ -17.38060145669321, 14.812973092326272 ] } },
{ "type": "Feature", "properties": { "facility_id": "HF0004", "facility_name": "Centre de Santé Dakar 4", "facility_type": "Centre de Santé", "region": "Dakar", "capacity_beds": 62, "has_maternity": 1, "has_electricity": 1 }, "geometry": { "type": "Point", "coordinates": [ -17.484573424560732, 14.635466764067788 ] } },
{ "type": "Feature", "properties": { "facility_id": "HF0005", "facility_name": "Centre de Santé Dakar 5", "facility_type": "Centre de Santé", "region": "Dakar", "capacity_beds": 61, "has_maternity": 1, "has_electricity": 0 }, "geometry": { "type": "Point", "coordinates": [ -17.547698249802156, 14.680255456194628 ] } },
{ "type": "Feature", "properties": { "facility_id": "HF0006", "facility_name": "Poste de Santé Dakar 6", "facility_type": "Poste de Santé", "region": "Dakar", "capacity_beds": 22, "has_maternity": 1, "has_electricity": 1 }, "geometry": { "type": "Point", "coordinates": [ -17.521556478649902, 14.721010800634147 ] } },
{ "type": "Feature", "properties": { "facility_id": "HF0007", "facility_name": "Case de Santé Dakar 7", "facility_type": "Case de Santé", "region": "Dakar", "capacity_beds": 5, "has_maternity": 1, "has_electricity": 1 }, "geometry": { "type": "Point", "coordinates": [ -17.429715571122657, 14.702619637660465 ] } },
{ "type": "Feature", "properties": { "facility_id": "HF0008", "facility_name": "Centre de Santé Dakar 8", "facility_type": "Centre de Santé", "region": "Dakar", "capacity_beds": 61, "has_maternity": 1, "has_electricity": 1 }, "geometry": { "type": "Point", "coordinates": [ -17.395957068557731, 14.759698762565552 ] } },
{ "type": "Feature", "properties": { "facility_id": "HF0009", "facility_name": "Poste de Santé Dakar 9", "facility_type": "Poste de Santé", "region": "Dakar", "capacity_beds": 21, "has_maternity": 1, "has_electricity": 1 }, "geometry": { "type": "Point", "coordinates": [ -17.40178951783389, 14.811861096791326 ] } },
{ "type": "Feature", "properties": { "facility_id": "HF0010", "facility_name": "Case de Santé Dakar 10", "facility_type": "Case de Santé", "region": "Dakar", "capacity_beds": 8, "has_maternity": 0, "has_electricity": 1 }, "geometry": { "type": "Point", "coordinates": [ -17.463160636992445, 14.722340301805724 ] } },
{ "type": "Feature", "properties": { "facility_id": "HF0011", "facility_name": "Centre de Santé Dakar 11", "facility_type": "Centre de Santé", "region": "Dakar", "capacity_beds": 59, "has_maternity": 1, "has_electricity": 1 }, "geometry": { "type": "Point", "coordinates": [ -17.389007959089312, 14.769300696808923 ] } },
{ "type": "Feature", "properties": { "facility_id": "HF0012", "facility_name": "Case de Santé Dakar 12", "facility_type": "Case de Santé", "region": "Dakar", "capacity_beds": 8, "has_maternity": 0, "has_electricity": 1 }, "geometry": { "type": "Point", "coordinates": [ -17.337489361009112, 14.701804433129679 ] } },
{ "type": "Feature", "properties": { "facility_id": "HF0013", "facility_name": "Poste de Santé Dakar 13", "facility_type": "Poste de Santé", "region": "Dakar", "capacity_beds": 20, "has_maternity": 0, "has_electricity": 1 }, "geometry": { "type": "Point", "coordinates": [ -17.39994518061842, 14.778367702266186 ] } },
{ "type": "Feature", "properties": { "facility_id": "HF0014", "facility_name": "Case de Santé Dakar 14", "facility_type": "Case de Santé", "region": "Dakar", "capacity_beds": 8, "has_maternity": 0, "has_electricity": 1 }, "geometry": { "type": "Point", "coordinates": [ -17.460068448127512, 14.74410910849196 ] } },
{ "type": "Feature", "properties": { "facility_id": "HF0015", "facility_name": "Case de Santé Dakar 15", "facility_type": "Case de Santé", "region": "Dakar", "capacity_beds": 2, "has_maternity": 1, "has_electricity": 1 }, "geometry": { "type": "Point", "coordinates": [ -17.448550675908574, 14.681174752636208 ] } },
{ "type": "Feature", "properties": { "facility_id": "HF0016", "facility_name": "Case de Santé Dakar 16", "facility_type": "Case de Santé", "region": "Dakar", "capacity_beds": 2, "has_maternity": 0, "has_electricity": 1 }, "geometry": { "type": "Point", "coordinates": [ -17.292321056737226, 14.756620641424714 ] } },
{ "type": "Feature", "properties": { "facility_id": "HF0017", "facility_name": "Centre de Santé Dakar 17", "facility_type": "Centre de Santé", "region": "Dakar", "capacity_beds": 58, "has_maternity": 1, "has_electricity": 1 }, "geometry": { "type": "Point", "coordinates": [ -17.320430968832088, 14.795921607650786 ] } },
{ "type": "Feature", "properties": { "facility_id": "HF0018", "facility_name": "Poste de Santé Dakar 18", "facility_type": "Poste de Santé", "region": "Dakar", "capacity_beds": 17, "has_maternity": 0, "has_electricity": 0 }, "geometry": { "type": "Point", "coordinates": [ -17.272384984701169, 14.782189341362143 ] } },
{ "type": "Feature", "properties": { "facility_id": "HF0019", "facility_name": "Poste de Santé Dakar 19", "facility_type": "Poste de Santé", "region": "Dakar", "capacity_beds": 22, "has_maternity": 0, "has_electricity": 1 }, "geometry": { "type": "Point", "coordinates": [ -17.521704117730369, 14.673617875495973 ] } },
{ "type": "Feature", "properties": { "facility_id": "HF0020", "facility_name": "Case de Santé Dakar 20", "facility_type": "Case de Santé", "region": "Dakar", "capacity_beds": 8, "has_maternity": 1, "has_electricity": 1 }, "geometry": { "type": "Point", "coordinates": [ -17.458211397489798, 14.756280274617092 ] } },
{ "type": "Feature", "properties": { "facility_id": "HF0021", "facility_name": "Case de Santé Dakar 21", "facility_type": "Case de Santé", "region": "Dakar", "capacity_beds": 3, "has_maternity": 1, "has_electricity": 1 }, "geometry": { "type": "Point", "coordinates": [ -17.327174745150778, 14.812627742338321 ] } },
{ "type": "Feature", "properties": { "facility_id": "HF0022", "facility_name": "Case de Santé Dakar 22", "facility_type": "Case de Santé", "region": "Dakar", "capacity_beds": 2, "has_maternity": 1, "has_electricity": 1 }, "geometry": { "type": "Point", "coordinates": [ -17.399075619066174, 14.716061760747804 ] } },
{ "type": "Feature", "properties": { "facility_id": "HF0023", "facility_name": "Poste de Santé Dakar 23", "facility_type": "Poste de Santé", "region": "Dakar", "capacity_beds": 21, "has_maternity": 0, "has_electricity": 1 }, "geometry": { "type": "Point", "coordinates": [ -17.433250511854922, 14.689823990717159 ] } },
{ "type": "Feature", "properties": { "facility_id": "HF0024", "facility_name": "Hôpital Régional Dakar 24", "facility_type": "Hôpital Régional", "region": "Dakar", "capacity_beds": 248, "has_maternity": 0, "has_electricity": 1 }, "geometry": { "type": "Point", "coordinates": [ -17.351372355165267, 14.679472735002483 ] } },
{ "type": "Feature", "properties": { "facility_id": "HF0025", "facility_name": "Hôpital Régional Dakar 25", "facility_type": "Hôpital Régional", "region": "Dakar", "capacity_beds": 247, "has_maternity": 0, "has_electricity": 1 }, "geometry": { "type": "Point", "coordinates": [ -17.550640212543666, 14.760927522342122 ] } },
{ "type": "Feature", "properties": { "facility_id": "HF0026", "facility_name": "Poste de Santé Dakar 26", "facility_type": "Poste de Santé", "region": "Dakar", "capacity_beds": 19, "has_maternity": 0, "has_electricity": 1 }, "geometry": { "type": "Point", "coordinates": [ -17.34867983819753, 14.70382246244912 ] } },
{ "type": "Feature", "properties": { "facility_id": "HF0027", "facility_name": "Case de Santé Dakar 27", "facility_type": "Case de Santé", "region": "Dakar", "capacity_beds": 4, "has_maternity": 0, "has_electricity": 1 }, "geometry": { "type": "Point", "coordinates": [ -17.499563986932419, 14.734552363573595 ] } },
{ "type": "Feature", "properties": { "facility_id": "HF0028", "facility_name": "Poste de Santé Dakar 28", "facility_type": "Poste de Santé", "region": "Dakar", "capacity_beds": 18, "has_maternity": 1, "has_electricity": 1 }, "geometry": { "type": "Point", "coordinates": [ -17.365924661924982, 14.641874599427721 ] } },
{ "type": "Feature", "properties": { "facility_id": "HF0029", "facility_name": "Case de Santé Dakar 29", "facility_type": "Case de Santé", "region": "Dakar", "capacity_beds": 5, "has_maternity": 1, "has_electricity": 0 }, "geometry": { "type": "Point", "coordinates": [ -17.280713177989544, 14.676389856108456 ] } },
{ "type": "Feature", "properties": { "facility_id": "HF0030", "facility_name": "Poste de Santé Dakar 30", "facility_type": "Poste de Santé", "region": "Dakar", "capacity_beds": 21, "has_maternity": 0, "has_electricity": 1 }, "geometry": { "type": "Point", "coordinates": [ -17.381368632436399, 14.694648115121714 ] } },
{ "type": "Feature", "properties": { "facility_id": "HF0031", "facility_name": "Case de Santé Dakar 31", "facility_type": "Case de Santé", "region": "Dakar", "capacity_beds": 5, "has_maternity": 0, "has_electricity": 0 }, "geometry": { "type": "Point", "coordinates": [ -17.373812692833891, 14.677672856180763 ] } },
{ "type": "Feature", "properties": { "facility_id": "HF0032", "facility_name": "Poste de Santé Dakar 32", "facility_type": "Poste de Santé", "region": "Dakar", "capacity_beds": 20, "has_maternity": 0, "has_electricity": 1 }, "geometry": { "type": "Point", "coordinates": [ -17.526347388096948, 14.687121757390592 ] } },
{ "type": "Feature", "properties": { "facility_id": "HF0033", "facility_name": "Case de Santé Dakar 33", "facility_type": "Case de Santé", "region": "Dakar", "capacity_beds": 4, "has_maternity": 0, "has_electricity": 0 }, "geometry": { "type": "Point", "coordinates": [ -17.350694455886483, 14.635289545360999 ] } },
{ "type": "Feature", "properties": { "facility_id": "HF0034", "facility_name": "Poste de Santé Dakar 34", "facility_type": "Poste de Santé", "region": "Dakar", "capacity_beds": 22, "has_maternity": 1, "has_electricity": 1 }, "geometry": { "type": "Point", "coordinates": [ -17.337161022894616, 14.622747648065939 ] } },
{ "type": "Feature", "properties": { "facility_id": "HF0035", "facility_name": "Poste de Santé Dakar 35", "facility_type": "Poste de Santé", "region": "Dakar", "capacity_beds": 21, "has_maternity": 0, "has_electricity": 0 }, "geometry": { "type": "Point", "coordinates": [ -17.422669967997827, 14.742132621760431 ] } },
{ "type": "Feature", "properties": { "facility_id": "HF0036", "facility_name": "Centre de Santé Dakar 36", "facility_type": "Centre de Santé", "region": "Dakar", "capacity_beds": 59, "has_maternity": 0, "has_electricity": 1 }, "geometry": { "type": "Point", "coordinates": [ -17.457701983585387, 14.711752357846354 ] } },
{ "type": "Feature", "properties": { "facility_id": "HF0037", "facility_name": "Centre de Santé Thiès 37", "facility_type": "Centre de Santé", "region": "Thiès", "capacity_beds": 59, "has_maternity": 0, "has_electricity": 1 }, "geometry": { "type": "Point", "coordinates": [ -17.096466210910236, 14.380207082311111 ] } },
{ "type": "Feature", "properties": { "facility_id": "HF0038", "facility_name": "Poste de Santé Thiès 38", "facility_type": "Poste de Santé", "region": "Thiès", "capacity_beds": 18, "has_maternity": 1, "has_electricity": 1 }, "geometry": { "type": "Point", "coordinates": [ -16.488751302633379, 14.883018992594003 ] } },
{ "type": "Feature", "properties": { "facility_id": "HF0039", "facility_name": "Hôpital Régional Thiès 39", "facility_type": "Hôpital Régional", "region": "Thiès", "capacity_beds": 251, "has_maternity": 0, "has_electricity": 1 }, "geometry": { "type": "Point", "coordinates": [ -16.529842414593862, 14.799868071002043 ] } },
{ "type": "Feature", "properties": { "facility_id": "HF0040", "facility_name": "Poste de Santé Thiès 40", "facility_type": "Poste de Santé", "region": "Thiès", "capacity_beds": 20, "has_maternity": 1, "has_electricity": 0 }, "geometry": { "type": "Point", "coordinates": [ -16.493389633640135, 14.592043212707971 ] } },
{ "type": "Feature", "properties": { "facility_id": "HF0041", "facility_name": "Case de Santé Thiès 41", "facility_type": "Case de Santé", "region": "Thiès", "capacity_beds": 7, "has_maternity": 1, "has_electricity": 0 }, "geometry": { "type": "Point", "coordinates": [ -17.43277089551993, 14.649546259123762 ] } },
{ "type": "Feature", "properties": { "facility_id": "HF0042", "facility_name": "Poste de Santé Thiès 42", "facility_type": "Poste de Santé", "region": "Thiès", "capacity_beds": 21, "has_maternity": 0, "has_electricity": 1 }, "geometry": { "type": "Point", "coordinates": [ -17.145089428012721, 14.703286805297269 ] } },
{ "type": "Feature", "properties": { "facility_id": "HF0043", "facility_name": "Case de Santé Thiès 43", "facility_type": "Case de Santé", "region": "Thiès", "capacity_beds": 2, "has_maternity": 0, "has_electricity": 1 }, "geometry": { "type": "Point", "coordinates": [ -16.763196445638592, 14.567291997538398 ] } },
{ "type": "Feature", "properties": { "facility_id": "HF0044", "facility_name": "Poste de Santé Thiès 44", "facility_type": "Poste de Santé", "region": "Thiès", "capacity_beds": 21, "has_maternity": 0, "has_electricity": 1 }, "geometry": { "type": "Point", "coordinates": [ -16.426435879560486, 14.489069007936511 ] } },
{ "type": "Feature", "properties": { "facility_id": "HF0045", "facility_name": "Poste de Santé Thiès 45", "facility_type": "Poste de Santé", "region": "Thiès", "capacity_beds": 21, "has_maternity": 0, "has_electricity": 0 }, "geometry": { "type": "Point", "coordinates": [ -16.972953816798427, 14.411615597977127 ] } },
{ "type": "Feature", "properties": { "facility_id": "HF0046", "facility_name": "Poste de Santé Thiès 46", "facility_type": "Poste de Santé", "region": "Thiès", "capacity_beds": 23, "has_maternity": 1, "has_electricity": 1 }, "geometry": { "type": "Point", "coordinates": [ -16.661926836580022, 15.261930489917283 ] } },
{ "type": "Feature", "properties": { "facility_id": "HF0047", "facility_name": "Case de Santé Thiès 47", "facility_type": "Case de Santé", "region": "Thiès", "capacity_beds": 4, "has_maternity": 0, "has_electricity": 0 }, "geometry": { "type": "Point", "coordinates": [ -17.240514949762034, 14.67777129928306 ] } },
{ "type": "Feature", "properties": { "facility_id": "HF0048", "facility_name": "Poste de Santé Thiès 48", "facility_type": "Poste de Santé", "region": "Thiès", "capacity_beds": 18, "has_maternity": 1, "has_electricity": 1 }, "geometry": { "type": "Point", "coordinates": [ -17.018966913194348, 14.393605958684866 ] } },
{ "type": "Feature", "properties": { "facility_id": "HF0049", "facility_name": "Poste de Santé Thiès 49", "facility_type": "Poste de Santé", "region": "Thiès", "capacity_beds": 21, "has_maternity": 1, "has_electricity": 1 }, "geometry": { "type": "Point", "coordinates": [ -16.730967935058963, 14.816016728470979 ] } },
{ "type": "Feature", "properties": { "facility_id": "HF0050", "facility_name": "Hôpital Régional Thiès 50", "facility_type": "Hôpital Régional", "region": "Thiès", "capacity_beds": 250, "has_maternity": 0, "has_electricity": 1 }, "geometry": { "type": "Point", "coordinates": [ -16.792067377627458, 15.270079776256388 ] } },
{ "type": "Feature", "properties": { "facility_id": "HF0051", "facility_name": "Poste de Santé Thiès 51", "facility_type": "Poste de Santé", "region": "Thiès", "capacity_beds": 17, "has_maternity": 1, "has_electricity": 1 }, "geometry": { "type": "Point", "coordinates": [ -16.589907392328445, 14.162714657985081 ] } },
{ "type": "Feature", "properties": { "facility_id": "HF0052", "facility_name": "Case de Santé Thiès 52", "facility_type": "Case de Santé", "region": "Thiès", "capacity_beds": 5, "has_maternity": 0, "has_electricity": 1 }, "geometry": { "type": "Point", "coordinates": [ -17.137871767279332, 14.71096785701854 ] } },
{ "type": "Feature", "properties": { "facility_id": "HF0053", "facility_name": "Case de Santé Thiès 53", "facility_type": "Case de Santé", "region": "Thiès", "capacity_beds": 2, "has_maternity": 0, "has_electricity": 0 }, "geometry": { "type": "Point", "coordinates": [ -16.982452510940824, 14.708861071450498 ] } },
{ "type": "Feature", "properties": { "facility_id": "HF0054", "facility_name": "Case de Santé Diourbel 54", "facility_type": "Case de Santé", "region": "Diourbel", "capacity_beds": 7, "has_maternity": 0, "has_electricity": 1 }, "geometry": { "type": "Point", "coordinates": [ -16.525298889859176, 15.247156557214172 ] } },
{ "type": "Feature", "properties": { "facility_id": "HF0055", "facility_name": "Centre de Santé Diourbel 55", "facility_type": "Centre de Santé", "region": "Diourbel", "capacity_beds": 62, "has_maternity": 0, "has_electricity": 1 }, "geometry": { "type": "Point", "coordinates": [ -16.579233918882572, 14.673334397872571 ] } },
{ "type": "Feature", "properties": { "facility_id": "HF0056", "facility_name": "Centre de Santé Diourbel 56", "facility_type": "Centre de Santé", "region": "Diourbel", "capacity_beds": 58, "has_maternity": 0, "has_electricity": 1 }, "geometry": { "type": "Point", "coordinates": [ -16.609807202948591, 14.419290865480638 ] } },
{ "type": "Feature", "properties": { "facility_id": "HF0057", "facility_name": "Centre de Santé Diourbel 57", "facility_type": "Centre de Santé", "region": "Diourbel", "capacity_beds": 58, "has_maternity": 1, "has_electricity": 1 }, "geometry": { "type": "Point", "coordinates": [ -16.347013958128993, 14.701728924168586 ] } },
{ "type": "Feature", "properties": { "facility_id": "HF0058", "facility_name": "Case de Santé Diourbel 58", "facility_type": "Case de Santé", "region": "Diourbel", "capacity_beds": 8, "has_maternity": 0, "has_electricity": 1 }, "geometry": { "type": "Point", "coordinates": [ -16.032626581946626, 14.643624321023623 ] } },
{ "type": "Feature", "properties": { "facility_id": "HF0059", "facility_name": "Poste de Santé Diourbel 59", "facility_type": "Poste de Santé", "region": "Diourbel", "capacity_beds": 22, "has_maternity": 0, "has_electricity": 1 }, "geometry": { "type": "Point", "coordinates": [ -16.018657905268682, 14.436034074073316 ] } },
{ "type": "Feature", "properties": { "facility_id": "HF0060", "facility_name": "Case de Santé Diourbel 60", "facility_type": "Case de Santé", "region": "Diourbel", "capacity_beds": 4, "has_maternity": 1, "has_electricity": 1 }, "geometry": { "type": "Point", "coordinates": [ -16.077157141925145, 14.84986730283352 ] } },
{ "type": "Feature", "properties": { "facility_id": "HF0061", "facility_name": "Case de Santé Diourbel 61", "facility_type": "Case de Santé", "region": "Diourbel", "capacity_beds": 4, "has_maternity": 0, "has_electricity": 1 }, "geometry": { "type": "Point", "coordinates": [ -15.879745283946757, 15.239619050550525 ] } },
{ "type": "Feature", "properties": { "facility_id": "HF0062", "facility_name": "Poste de Santé Diourbel 62", "facility_type": "Poste de Santé", "region": "Diourbel", "capacity_beds": 18, "has_maternity": 1, "has_electricity": 1 }, "geometry": { "type": "Point", "coordinates": [ -16.478200132979381, 14.555683661363977 ] } },
{ "type": "Feature", "properties": { "facility_id": "HF0063", "facility_name": "Poste de Santé Diourbel 63", "facility_type": "Poste de Santé", "region": "Diourbel", "capacity_beds": 18, "has_maternity": 1, "has_electricity": 1 }, "geometry": { "type": "Point", "coordinates": [ -16.059341883920755, 14.650619463751941 ] } },
{ "type": "Feature", "properties": { "facility_id": "HF0064", "facility_name": "Case de Santé Diourbel 64", "facility_type": "Case de Santé", "region": "Diourbel", "capacity_beds": 6, "has_maternity": 0, "has_electricity": 1 }, "geometry": { "type": "Point", "coordinates": [ -16.427671605048154, 14.59048983978114 ] } },
{ "type": "Feature", "properties": { "facility_id": "HF0065", "facility_name": "Centre de Santé Diourbel 65", "facility_type": "Centre de Santé", "region": "Diourbel", "capacity_beds": 60, "has_maternity": 1, "has_electricity": 1 }, "geometry": { "type": "Point", "coordinates": [ -16.116520572561171, 15.101155126863491 ] } },
{ "type": "Feature", "properties": { "facility_id": "HF0066", "facility_name": "Centre de Santé Diourbel 66", "facility_type": "Centre de Santé", "region": "Diourbel", "capacity_beds": 60, "has_maternity": 0, "has_electricity": 1 }, "geometry": { "type": "Point", "coordinates": [ -15.838756784384884, 15.085800097923441 ] } },
{ "type": "Feature", "properties": { "facility_id": "HF0067", "facility_name": "Case de Santé Diourbel 67", "facility_type": "Case de Santé", "region": "Diourbel", "capacity_beds": 4, "has_maternity": 0, "has_electricity": 1 }, "geometry": { "type": "Point", "coordinates": [ -16.436685610947766, 14.167222389771032 ] } },
{ "type": "Feature", "properties": { "facility_id": "HF0068", "facility_name": "Poste de Santé Fatick 68", "facility_type": "Poste de Santé", "region": "Fatick", "capacity_beds": 17, "has_maternity": 1, "has_electricity": 1 }, "geometry": { "type": "Point", "coordinates": [ -16.277295283671705, 13.860193685992076 ] } },
{ "type": "Feature", "properties": { "facility_id": "HF0069", "facility_name": "Centre de Santé Fatick 69", "facility_type": "Centre de Santé", "region": "Fatick", "capacity_beds": 58, "has_maternity": 0, "has_electricity": 1 }, "geometry": { "type": "Point", "coordinates": [ -16.626228584984837, 13.81502713942311 ] } },
{ "type": "Feature", "properties": { "facility_id": "HF0070", "facility_name": "Centre de Santé Fatick 70", "facility_type": "Centre de Santé", "region": "Fatick", "capacity_beds": 58, "has_maternity": 1, "has_electricity": 1 }, "geometry": { "type": "Point", "coordinates": [ -16.494766063562562, 14.056242688156976 ] } },
{ "type": "Feature", "properties": { "facility_id": "HF0071", "facility_name": "Poste de Santé Fatick 71", "facility_type": "Poste de Santé", "region": "Fatick", "capacity_beds": 23, "has_maternity": 0, "has_electricity": 1 }, "geometry": { "type": "Point", "coordinates": [ -16.361839712365125, 14.719464946415668 ] } },
{ "type": "Feature", "properties": { "facility_id": "HF0072", "facility_name": "Poste de Santé Fatick 72", "facility_type": "Poste de Santé", "region": "Fatick", "capacity_beds": 19, "has_maternity": 0, "has_electricity": 1 }, "geometry": { "type": "Point", "coordinates": [ -16.156230567827414, 14.4492216765432 ] } },
{ "type": "Feature", "properties": { "facility_id": "HF0073", "facility_name": "Hôpital Régional Fatick 73", "facility_type": "Hôpital Régional", "region": "Fatick", "capacity_beds": 252, "has_maternity": 1, "has_electricity": 1 }, "geometry": { "type": "Point", "coordinates": [ -16.561313845254755, 14.029095217192726 ] } },
{ "type": "Feature", "properties": { "facility_id": "HF0074", "facility_name": "Case de Santé Fatick 74", "facility_type": "Case de Santé", "region": "Fatick", "capacity_beds": 7, "has_maternity": 0, "has_electricity": 0 }, "geometry": { "type": "Point", "coordinates": [ -16.363708046705742, 14.212764289146675 ] } },
{ "type": "Feature", "properties": { "facility_id": "HF0075", "facility_name": "Case de Santé Kaolack 75", "facility_type": "Case de Santé", "region": "Kaolack", "capacity_beds": 7, "has_maternity": 0, "has_electricity": 1 }, "geometry": { "type": "Point", "coordinates": [ -15.861634858551747, 14.052080593838649 ] } },
{ "type": "Feature", "properties": { "facility_id": "HF0076", "facility_name": "Case de Santé Kaolack 76", "facility_type": "Case de Santé", "region": "Kaolack", "capacity_beds": 2, "has_maternity": 0, "has_electricity": 1 }, "geometry": { "type": "Point", "coordinates": [ -16.424390653123087, 14.021775130132161 ] } },
{ "type": "Feature", "properties": { "facility_id": "HF0077", "facility_name": "Poste de Santé Kaolack 77", "facility_type": "Poste de Santé", "region": "Kaolack", "capacity_beds": 22, "has_maternity": 0, "has_electricity": 1 }, "geometry": { "type": "Point", "coordinates": [ -16.016348396544089, 14.093527668851904 ] } },
{ "type": "Feature", "properties": { "facility_id": "HF0078", "facility_name": "Centre de Santé Kaolack 78", "facility_type": "Centre de Santé", "region": "Kaolack", "capacity_beds": 59, "has_maternity": 1, "has_electricity": 1 }, "geometry": { "type": "Point", "coordinates": [ -16.146896110786415, 13.733262563185711 ] } },
{ "type": "Feature", "properties": { "facility_id": "HF0079", "facility_name": "Case de Santé Kaolack 79", "facility_type": "Case de Santé", "region": "Kaolack", "capacity_beds": 5, "has_maternity": 0, "has_electricity": 1 }, "geometry": { "type": "Point", "coordinates": [ -16.331572681049796, 14.197729116622025 ] } },
{ "type": "Feature", "properties": { "facility_id": "HF0080", "facility_name": "Case de Santé Kaolack 80", "facility_type": "Case de Santé", "region": "Kaolack", "capacity_beds": 7, "has_maternity": 1, "has_electricity": 1 }, "geometry": { "type": "Point", "coordinates": [ -16.174323268298462, 14.297720332952167 ] } },
{ "type": "Feature", "properties": { "facility_id": "HF0081", "facility_name": "Case de Santé Kaolack 81", "facility_type": "Case de Santé", "region": "Kaolack", "capacity_beds": 6, "has_maternity": 0, "has_electricity": 1 }, "geometry": { "type": "Point", "coordinates": [ -16.523409275100395, 14.095304346145356 ] } },
{ "type": "Feature", "properties": { "facility_id": "HF0082", "facility_name": "Poste de Santé Kaolack 82", "facility_type": "Poste de Santé", "region": "Kaolack", "capacity_beds": 17, "has_maternity": 1, "has_electricity": 1 }, "geometry": { "type": "Point", "coordinates": [ -16.149228794328213, 14.099159685868035 ] } },
{ "type": "Feature", "properties": { "facility_id": "HF0083", "facility_name": "Case de Santé Kaolack 83", "facility_type": "Case de Santé", "region": "Kaolack", "capacity_beds": 6, "has_maternity": 1, "has_electricity": 1 }, "geometry": { "type": "Point", "coordinates": [ -15.910776955164465, 14.121559001206025 ] } },
{ "type": "Feature", "properties": { "facility_id": "HF0084", "facility_name": "Poste de Santé Kaffrine 84", "facility_type": "Poste de Santé", "region": "Kaffrine", "capacity_beds": 22, "has_maternity": 1, "has_electricity": 1 }, "geometry": { "type": "Point", "coordinates": [ -15.772927198215426, 14.427996292906544 ] } },
{ "type": "Feature", "properties": { "facility_id": "HF0085", "facility_name": "Hôpital Régional Kaffrine 85", "facility_type": "Hôpital Régional", "region": "Kaffrine", "capacity_beds": 250, "has_maternity": 1, "has_electricity": 1 }, "geometry": { "type": "Point", "coordinates": [ -16.178415311974213, 13.654775036955714 ] } },
{ "type": "Feature", "properties": { "facility_id": "HF0086", "facility_name": "Centre de Santé Kaffrine 86", "facility_type": "Centre de Santé", "region": "Kaffrine", "capacity_beds": 63, "has_maternity": 1, "has_electricity": 1 }, "geometry": { "type": "Point", "coordinates": [ -15.533622296712785, 14.029323573444296 ] } },
{ "type": "Feature", "properties": { "facility_id": "HF0087", "facility_name": "Poste de Santé Kaffrine 87", "facility_type": "Poste de Santé", "region": "Kaffrine", "capacity_beds": 17, "has_maternity": 0, "has_electricity": 1 }, "geometry": { "type": "Point", "coordinates": [ -15.455905143955324, 14.008350679288665 ] } },
{ "type": "Feature", "properties": { "facility_id": "HF0088", "facility_name": "Poste de Santé Kaffrine 88", "facility_type": "Poste de Santé", "region": "Kaffrine", "capacity_beds": 18, "has_maternity": 1, "has_electricity": 1 }, "geometry": { "type": "Point", "coordinates": [ -15.303119530807088, 14.370152728275146 ] } },
{ "type": "Feature", "properties": { "facility_id": "HF0089", "facility_name": "Poste de Santé Kaffrine 89", "facility_type": "Poste de Santé", "region": "Kaffrine", "capacity_beds": 23, "has_maternity": 1, "has_electricity": 1 }, "geometry": { "type": "Point", "coordinates": [ -15.364997971579486, 13.926881691460251 ] } },
{ "type": "Feature", "properties": { "facility_id": "HF0090", "facility_name": "Poste de Santé Louga 90", "facility_type": "Poste de Santé", "region": "Louga", "capacity_beds": 19, "has_maternity": 0, "has_electricity": 1 }, "geometry": { "type": "Point", "coordinates": [ -15.335123134011365, 15.022597983201297 ] } },
{ "type": "Feature", "properties": { "facility_id": "HF0091", "facility_name": "Poste de Santé Louga 91", "facility_type": "Poste de Santé", "region": "Louga", "capacity_beds": 17, "has_maternity": 1, "has_electricity": 1 }, "geometry": { "type": "Point", "coordinates": [ -16.745086012162275, 15.37139526594437 ] } },
{ "type": "Feature", "properties": { "facility_id": "HF0092", "facility_name": "Case de Santé Louga 92", "facility_type": "Case de Santé", "region": "Louga", "capacity_beds": 5, "has_maternity": 0, "has_electricity": 1 }, "geometry": { "type": "Point", "coordinates": [ -15.652478211149495, 15.889072581542603 ] } },
{ "type": "Feature", "properties": { "facility_id": "HF0093", "facility_name": "Centre de Santé Louga 93", "facility_type": "Centre de Santé", "region": "Louga", "capacity_beds": 62, "has_maternity": 0, "has_electricity": 1 }, "geometry": { "type": "Point", "coordinates": [ -15.323694900889061, 15.618176542044527 ] } },
{ "type": "Feature", "properties": { "facility_id": "HF0094", "facility_name": "Centre de Santé Louga 94", "facility_type": "Centre de Santé", "region": "Louga", "capacity_beds": 63, "has_maternity": 0, "has_electricity": 1 }, "geometry": { "type": "Point", "coordinates": [ -14.891226786677304, 14.312224253218922 ] } },
{ "type": "Feature", "properties": { "facility_id": "HF0095", "facility_name": "Case de Santé Louga 95", "facility_type": "Case de Santé", "region": "Louga", "capacity_beds": 8, "has_maternity": 1, "has_electricity": 1 }, "geometry": { "type": "Point", "coordinates": [ -15.993806981295061, 14.498521004153726 ] } },
{ "type": "Feature", "properties": { "facility_id": "HF0096", "facility_name": "Poste de Santé Louga 96", "facility_type": "Poste de Santé", "region": "Louga", "capacity_beds": 22, "has_maternity": 1, "has_electricity": 1 }, "geometry": { "type": "Point", "coordinates": [ -16.168038667854674, 15.753213400771937 ] } },
{ "type": "Feature", "properties": { "facility_id": "HF0097", "facility_name": "Poste de Santé Saint-Louis 97", "facility_type": "Poste de Santé", "region": "Saint-Louis", "capacity_beds": 20, "has_maternity": 0, "has_electricity": 1 }, "geometry": { "type": "Point", "coordinates": [ -15.631680696648303, 15.8700351628568 ] } },
{ "type": "Feature", "properties": { "facility_id": "HF0098", "facility_name": "Centre de Santé Saint-Louis 98", "facility_type": "Centre de Santé", "region": "Saint-Louis", "capacity_beds": 63, "has_maternity": 0, "has_electricity": 0 }, "geometry": { "type": "Point", "coordinates": [ -16.335839294996195, 15.107346307969404 ] } },
{ "type": "Feature", "properties": { "facility_id": "HF0099", "facility_name": "Case de Santé Saint-Louis 99", "facility_type": "Case de Santé", "region": "Saint-Louis", "capacity_beds": 2, "has_maternity": 0, "has_electricity": 0 }, "geometry": { "type": "Point", "coordinates": [ -15.791465119332114, 15.467998006758853 ] } },
{ "type": "Feature", "properties": { "facility_id": "HF0100", "facility_name": "Case de Santé Saint-Louis 100", "facility_type": "Case de Santé", "region": "Saint-Louis", "capacity_beds": 5, "has_maternity": 0, "has_electricity": 1 }, "geometry": { "type": "Point", "coordinates": [ -16.252464399234285, 16.209007303872543 ] } },
{ "type": "Feature", "properties": { "facility_id": "HF0101", "facility_name": "Centre de Santé Saint-Louis 101", "facility_type": "Centre de Santé", "region": "Saint-Louis", "capacity_beds": 61, "has_maternity": 0, "has_electricity": 0 }, "geometry": { "type": "Point", "coordinates": [ -16.539164229513013, 15.967207037759399 ] } },
{ "type": "Feature", "properties": { "facility_id": "HF0102", "facility_name": "Poste de Santé Saint-Louis 102", "facility_type": "Poste de Santé", "region": "Saint-Louis", "capacity_beds": 20, "has_maternity": 0, "has_electricity": 1 }, "geometry": { "type": "Point", "coordinates": [ -16.487548506133962, 14.769501395700004 ] } },
{ "type": "Feature", "properties": { "facility_id": "HF0103", "facility_name": "Case de Santé Saint-Louis 103", "facility_type": "Case de Santé", "region": "Saint-Louis", "capacity_beds": 7, "has_maternity": 1, "has_electricity": 1 }, "geometry": { "type": "Point", "coordinates": [ -16.40899432453611, 15.401019065681638 ] } },
{ "type": "Feature", "properties": { "facility_id": "HF0104", "facility_name": "Poste de Santé Saint-Louis 104", "facility_type": "Poste de Santé", "region": "Saint-Louis", "capacity_beds": 21, "has_maternity": 0, "has_electricity": 1 }, "geometry": { "type": "Point", "coordinates": [ -16.884758378917727, 15.228572004275904 ] } },
{ "type": "Feature", "properties": { "facility_id": "HF0105", "facility_name": "Centre de Santé Saint-Louis 105", "facility_type": "Centre de Santé", "region": "Saint-Louis", "capacity_beds": 58, "has_maternity": 1, "has_electricity": 1 }, "geometry": { "type": "Point", "coordinates": [ -16.372919326948168, 14.845434554001645 ] } },
{ "type": "Feature", "properties": { "facility_id": "HF0106", "facility_name": "Poste de Santé Matam 106", "facility_type": "Poste de Santé", "region": "Matam", "capacity_beds": 18, "has_maternity": 0, "has_electricity": 1 }, "geometry": { "type": "Point", "coordinates": [ -13.176133303143784, 15.549695159725383 ] } },
{ "type": "Feature", "properties": { "facility_id": "HF0107", "facility_name": "Centre de Santé Matam 107", "facility_type": "Centre de Santé", "region": "Matam", "capacity_beds": 57, "has_maternity": 0, "has_electricity": 1 }, "geometry": { "type": "Point", "coordinates": [ -14.217174282353838, 15.917219083591597 ] } },
{ "type": "Feature", "properties": { "facility_id": "HF0108", "facility_name": "Poste de Santé Matam 108", "facility_type": "Poste de Santé", "region": "Matam", "capacity_beds": 22, "has_maternity": 1, "has_electricity": 0 }, "geometry": { "type": "Point", "coordinates": [ -12.392642962813879, 14.219496649196559 ] } },
{ "type": "Feature", "properties": { "facility_id": "HF0109", "facility_name": "Poste de Santé Matam 109", "facility_type": "Poste de Santé", "region": "Matam", "capacity_beds": 19, "has_maternity": 0, "has_electricity": 0 }, "geometry": { "type": "Point", "coordinates": [ -13.669819573561069, 15.306152414240209 ] } },
{ "type": "Feature", "properties": { "facility_id": "HF0110", "facility_name": "Case de Santé Matam 110", "facility_type": "Case de Santé", "region": "Matam", "capacity_beds": 8, "has_maternity": 1, "has_electricity": 1 }, "geometry": { "type": "Point", "coordinates": [ -14.274566969801398, 15.018842116115033 ] } },
{ "type": "Feature", "properties": { "facility_id": "HF0111", "facility_name": "Centre de Santé Tambacounda 111", "facility_type": "Centre de Santé", "region": "Tambacounda", "capacity_beds": 61, "has_maternity": 1, "has_electricity": 1 }, "geometry": { "type": "Point", "coordinates": [ -14.358394840944186, 13.723965833656116 ] } },
{ "type": "Feature", "properties": { "facility_id": "HF0112", "facility_name": "Centre de Santé Tambacounda 112", "facility_type": "Centre de Santé", "region": "Tambacounda", "capacity_beds": 61, "has_maternity": 1, "has_electricity": 1 }, "geometry": { "type": "Point", "coordinates": [ -13.140222455348212, 15.434730788699778 ] } },
{ "type": "Feature", "properties": { "facility_id": "HF0113", "facility_name": "Centre de Santé Tambacounda 113", "facility_type": "Centre de Santé", "region": "Tambacounda", "capacity_beds": 62, "has_maternity": 1, "has_electricity": 1 }, "geometry": { "type": "Point", "coordinates": [ -12.889253435940967, 13.99455244973257 ] } },
{ "type": "Feature", "properties": { "facility_id": "HF0114", "facility_name": "Poste de Santé Tambacounda 114", "facility_type": "Poste de Santé", "region": "Tambacounda", "capacity_beds": 18, "has_maternity": 0, "has_electricity": 1 }, "geometry": { "type": "Point", "coordinates": [ -13.867198761333629, 13.065008911412182 ] } },
{ "type": "Feature", "properties": { "facility_id": "HF0115", "facility_name": "Centre de Santé Tambacounda 115", "facility_type": "Centre de Santé", "region": "Tambacounda", "capacity_beds": 62, "has_maternity": 0, "has_electricity": 1 }, "geometry": { "type": "Point", "coordinates": [ -13.811896371227697, 14.043447608365835 ] } },
{ "type": "Feature", "properties": { "facility_id": "HF0116", "facility_name": "Case de Santé Tambacounda 116", "facility_type": "Case de Santé", "region": "Tambacounda", "capacity_beds": 6, "has_maternity": 0, "has_electricity": 1 }, "geometry": { "type": "Point", "coordinates": [ -13.125140148888589, 14.442696126018721 ] } },
{ "type": "Feature", "properties": { "facility_id": "HF0117", "facility_name": "Case de Santé Tambacounda 117", "facility_type": "Case de Santé", "region": "Tambacounda", "capacity_beds": 3, "has_maternity": 1, "has_electricity": 1 }, "geometry": { "type": "Point", "coordinates": [ -15.175045601955873, 14.087332734866898 ] } },
{ "type": "Feature", "properties": { "facility_id": "HF0118", "facility_name": "Case de Santé Kédougou 118", "facility_type": "Case de Santé", "region": "Kédougou", "capacity_beds": 4, "has_maternity": 1, "has_electricity": 1 }, "geometry": { "type": "Point", "coordinates": [ -12.49647851990078, 12.597353314603579 ] } },
{ "type": "Feature", "properties": { "facility_id": "HF0119", "facility_name": "Case de Santé Kédougou 119", "facility_type": "Case de Santé", "region": "Kédougou", "capacity_beds": 8, "has_maternity": 1, "has_electricity": 1 }, "geometry": { "type": "Point", "coordinates": [ -11.646109933362856, 12.683222987301281 ] } },
{ "type": "Feature", "properties": { "facility_id": "HF0120", "facility_name": "Poste de Santé Kédougou 120", "facility_type": "Poste de Santé", "region": "Kédougou", "capacity_beds": 19, "has_maternity": 1, "has_electricity": 1 }, "geometry": { "type": "Point", "coordinates": [ -11.974450727825062, 12.646527898115723 ] } },
{ "type": "Feature", "properties": { "facility_id": "HF0121", "facility_name": "Poste de Santé Kolda 121", "facility_type": "Poste de Santé", "region": "Kolda", "capacity_beds": 18, "has_maternity": 0, "has_electricity": 1 }, "geometry": { "type": "Point", "coordinates": [ -14.559093479388853, 13.021425325108936 ] } },
{ "type": "Feature", "properties": { "facility_id": "HF0122", "facility_name": "Centre de Santé Kolda 122", "facility_type": "Centre de Santé", "region": "Kolda", "capacity_beds": 63, "has_maternity": 0, "has_electricity": 1 }, "geometry": { "type": "Point", "coordinates": [ -15.105958838080713, 12.68112930934139 ] } },
{ "type": "Feature", "properties": { "facility_id": "HF0123", "facility_name": "Case de Santé Kolda 123", "facility_type": "Case de Santé", "region": "Kolda", "capacity_beds": 2, "has_maternity": 0, "has_electricity": 1 }, "geometry": { "type": "Point", "coordinates": [ -15.005173870116712, 13.214009582246867 ] } },
{ "type": "Feature", "properties": { "facility_id": "HF0124", "facility_name": "Poste de Santé Kolda 124", "facility_type": "Poste de Santé", "region": "Kolda", "capacity_beds": 19, "has_maternity": 0, "has_electricity": 1 }, "geometry": { "type": "Point", "coordinates": [ -14.609742586679818, 12.922710254675128 ] } },
{ "type": "Feature", "properties": { "facility_id": "HF0125", "facility_name": "Poste de Santé Kolda 125", "facility_type": "Poste de Santé", "region": "Kolda", "capacity_beds": 22, "has_maternity": 0, "has_electricity": 1 }, "geometry": { "type": "Point", "coordinates": [ -14.975483802266012, 13.288813402372288 ] } },
{ "type": "Feature", "properties": { "facility_id": "HF0126", "facility_name": "Case de Santé Kolda 126", "facility_type": "Case de Santé", "region": "Kolda", "capacity_beds": 2, "has_maternity": 0, "has_electricity": 1 }, "geometry": { "type": "Point", "coordinates": [ -15.53659400500861, 12.658346222063761 ] } },
{ "type": "Feature", "properties": { "facility_id": "HF0127", "facility_name": "Case de Santé Sédhiou 127", "facility_type": "Case de Santé", "region": "Sédhiou", "capacity_beds": 8, "has_maternity": 0, "has_electricity": 1 }, "geometry": { "type": "Point", "coordinates": [ -15.421020294427565, 12.962068628371419 ] } },
{ "type": "Feature", "properties": { "facility_id": "HF0128", "facility_name": "Case de Santé Sédhiou 128", "facility_type": "Case de Santé", "region": "Sédhiou", "capacity_beds": 2, "has_maternity": 1, "has_electricity": 1 }, "geometry": { "type": "Point", "coordinates": [ -15.181446530751463, 12.792086940976136 ] } },
{ "type": "Feature", "properties": { "facility_id": "HF0129", "facility_name": "Poste de Santé Sédhiou 129", "facility_type": "Poste de Santé", "region": "Sédhiou", "capacity_beds": 17, "has_maternity": 0, "has_electricity": 1 }, "geometry": { "type": "Point", "coordinates": [ -15.434641219192653, 12.967850727369543 ] } },
{ "type": "Feature", "properties": { "facility_id": "HF0130", "facility_name": "Centre de Santé Sédhiou 130", "facility_type": "Centre de Santé", "region": "Sédhiou", "capacity_beds": 63, "has_maternity": 0, "has_electricity": 1 }, "geometry": { "type": "Point", "coordinates": [ -15.571471211068658, 12.71611549777556 ] } },
{ "type": "Feature", "properties": { "facility_id": "HF0131", "facility_name": "Poste de Santé Ziguinchor 131", "facility_type": "Poste de Santé", "region": "Ziguinchor", "capacity_beds": 19, "has_maternity": 0, "has_electricity": 1 }, "geometry": { "type": "Point", "coordinates": [ -16.033057981377368, 12.81310838123952 ] } },
{ "type": "Feature", "properties": { "facility_id": "HF0132", "facility_name": "Case de Santé Ziguinchor 132", "facility_type": "Case de Santé", "region": "Ziguinchor", "capacity_beds": 5, "has_maternity": 1, "has_electricity": 1 }, "geometry": { "type": "Point", "coordinates": [ -16.38296809513897, 12.711996194098322 ] } },
{ "type": "Feature", "properties": { "facility_id": "HF0133", "facility_name": "Centre de Santé Ziguinchor 133", "facility_type": "Centre de Santé", "region": "Ziguinchor", "capacity_beds": 58, "has_maternity": 1, "has_electricity": 0 }, "geometry": { "type": "Point", "coordinates": [ -16.150392596842057, 12.580237559757814 ] } },
{ "type": "Feature", "properties": { "facility_id": "HF0134", "facility_name": "Case de Santé Ziguinchor 134", "facility_type": "Case de Santé", "region": "Ziguinchor", "capacity_beds": 2, "has_maternity": 0, "has_electricity": 1 }, "geometry": { "type": "Point", "coordinates": [ -16.057049034321018, 12.940316559626279 ] } },
{ "type": "Feature", "properties": { "facility_id": "HF0135", "facility_name": "Case de Santé Ziguinchor 135", "facility_type": "Case de Santé", "region": "Ziguinchor", "capacity_beds": 4, "has_maternity": 1, "has_electricity": 1 }, "geometry": { "type": "Point", "coordinates": [ -16.287741847278397, 13.005879701713258 ] } }
]
}
